[{"OBJECT_NAME":"OBJECT D","OBJECT_ID":"2023-091D","EPOCH":"2026-03-09T22:26:22.181280","MEAN_MOTION":15.22514214,"ECCENTRICITY":0.00120544,"INCLINATION":97.5229,"RA_OF_ASC_NODE":130.3318,"ARG_OF_PERICENTER":91.7077,"MEAN_ANOMALY":268.554,"EPHEMERIS_TYPE":0,"CLASSIFICATION_TYPE":"U","NORAD_CAT_ID":57169,"ELEMENT_SET_NO":999,"REV_AT_EPOCH":14905,"BSTAR":0.00044221161,"MEAN_MOTION_DOT":0.00010204,"MEAN_MOTION_DDOT":0},{"OBJECT_NAME":"GITAI-SC1","OBJECT_ID":"2024-247M","EPOCH":"2026-03-09T05:02:48.475392","MEAN_MOTION":15.20258622,"ECCENTRICITY":0.00021257,"INCLINATION":45.001,"RA_OF_ASC_NODE":131.8038,"ARG_OF_PERICENTER":277.7935,"MEAN_ANOMALY":82.2703,"EPHEMERIS_TYPE":0,"CLASSIFICATION_TYPE":"U","NORAD_CAT_ID":62388,"ELEMENT_SET_NO":999,"REV_AT_EPOCH":6751,"BSTAR":0.00028634303,"MEAN_MOTION_DOT":6.055e-5,"MEAN_MOTION_DDOT":0}]
